C/2016 N4 (MASTER),e,72.6523,353.9901,55.9619,7907,0.0000014,0.99959575,0.0000,09/17.7484/2017,2000,g  8.5,4.0
# From MPEC 2021-P47
C/2016 N6 (PANSTARRS),e,105.8541,298.9341,162.6007,1012,0.0000306,0.99737020,0.0000,07/17.5804/2018,2000,g  7.0,4.0
# From MPC102099
P/2016 P1 (PANSTARRS),e,24.4353,319.5567,270.3682,3.197989,0.1723410,0.28939941,81.3343,09/26.0/2022,2000,g 15.0,4.0
# From MPEC 2022-M21
C/2016 Q2 (PANSTARRS),h,05/12.3014/2021,109.3851,322.3050,84.5535,1.002605,7.081974,2000,6.0,4.0
# From MPC102955
C/2016 Q4 (Kowalski),e,7.2480,271.2964,99.6354,17.01072,0.0140482,0.58293460,23.8671,09/26.0/2022,2000,g  7.0,4.0
# From MPEC 2021-N06
C/2016 R2 (PANSTARRS),e,58.3104,80.5213,33.0990,475.9750,0.0000949,0.99454310,0.0000,05/09.1051/2018,2000,g  7.0,4.0
# From MPEC 2022-K19
P/2016 R4 (Gibbs),e,10.8779,168.2614,174.1174,5.332358,0.0800433,0.47630276,180.4975,09/26.0/2022,2000,g 12.5,4.0
# From MPC105543
P/2016 S1 (PANSTARRS),e,94.7242,227.6377,273.2634,8.276573,0.0413931,0.71022984,83.5959,09/26.0/2022,2000,g 12.0,4.0
# From MPC106345
P/2016 WM48 (Lemmon),e,117.5639,59.9283,36.1313,8.168225,0.0422194,0.78349686,86.1581,09/26.0/2022,2000,g 15.0,4.0
# From MPEC 2021-P47
C/2016 X1 (Lemmon),e,26.4569,256.3526,224.4747,1313,0.0000207,0.99424510,0.0000,04/27.8104/2019,2000,g  6.0,4.0
# From MPC114598
C/2017 AB5 (PANSTARRS),e,32.4628,42.5997,78.2834,2511,0.0000078,0.99633426,0.0000,02/14.4569/2018,2000,g  5.5,4.0
# From MPEC 2022-OB6
C/2017 B3 (LINEAR),h,02/01.7057/2019,54.1585,2.1748,284.8280,1.000492,3.928346,2000,6.0,4.0
# From MPC103847
P/2017 B4 (PANSTARRS),e,20.0584,121.4578,11.0197,4.410520,0.1064068,0.36495152,359.9130,01/05.0/2017,2000,g 14.5,4.0
# From MPEC 2022-OB6
P/2017 D1 (Fuls),e,20.7649,82.1866,7.9556,4.828230,0.0929014,0.43679619,212.3843,09/26.0/2022,2000,g 14.0,4.0
# From MPEC 2022-OB6
P/2017 D4 (PANSTARRS),e,10.5457,264.9416,212.1510,7.550131,0.0475086,0.62878544,105.0918,09/26.0/2022,2000,g 13.0,4.0
# From MPC111769
C/2017 F1 (Lemmon),h,11/28.1174/2017,146.4658,158.7871,64.7202,1.001504,4.499581,2000,10.5,4.0
# From MPC114598
C/2017 F2 (PANSTARRS),h,11/25.6449/2017,42.5568,38.7060,134.8952,1.001836,6.924301,2000,7.5,4.0
# From MPC104794
P/2017 G1 (PANSTARRS),e,4.7823,249.6660,224.3775,7.276784,0.0502105,0.65352827,117.6391,09/26.0/2022,2000,g 13.5,4.0
# From MPC108595
P/2017 G2 (PANSTARRS),e,47.9581,79.8297,105.4354,8.053107,0.0431280,0.64753641,83.4358,09/26.0/2022,2000,g 13.0,4.0
# From MPC115882
C/2017 K1 (PANSTARRS),h,03/17.8907/2018,154.0217,225.7279,4.4231,1.003431,7.284079,2000,7.0,4.0
# From MPEC 2022-RD9
C/2017 K2 (PANSTARRS),h,12/19.6837/2022,87.5626,88.2351,236.1984,1.000806,1.796896,2000,1.5,4.0
# From MPEC 2021-N06
P/2017 K3 (Gasparovic),e,4.2732,354.2918,253.4331,5.584706,0.0746799,0.57926442,145.3544,09/26.0/2022,2000,g 14.5,4.0
# From MPC114598
C/2017 K4 (ATLAS),e,16.6637,298.9127,15.3452,28.69550,0.0064119,0.90726790,11.0398,09/26.0/2022,2000,g 10.0,4.0
# From MPEC 2021-P47
C/2017 K5 (PANSTARRS),h,03/27.3867/2020,82.2483,102.3829,172.0676,1.005290,7.683906,2000,5.0,4.0
# From MPC114599
C/2017 K6 (Jacques),e,57.2211,84.9023,303.8093,1231,0.0000228,0.99837831,0.0000,01/04.0277/2018,2000,g 11.0,4.0
# From MPEC 2022-OB6
C/2017 M4 (ATLAS),h,01/17.9773/2019,105.6418,65.9555,167.6134,1.001296,3.252482,2000,6.0,4.0
# From MPC118841
C/2017 M5 (TOTAS),h,06/04.3108/2018,15.8632,216.2890,92.8606,1.005189,6.004061,2000,6.5,4.0
# From MPEC 2022-OB6
C/2017 O1 (ASASSN),e,39.9886,25.7146,20.8443,379.8437,0.0001331,0.99607541,0.0000,10/15.9624/2017,2000,g 11.0,4.0
# From MPC114599
P/2017 P1 (PANSTARRS),e,7.6899,221.3686,122.6745,7.911532,0.0442908,0.31093641,68.9368,09/26.0/2022,2000,g 10.0,4.0
# From MPC114599
C/2017 P2 (PANSTARRS),e,50.0486,165.4599,132.5151,2556,0.0000076,0.99903113,0.0000,12/05.8906/2017,2000,g 10.0,4.0
# From MPC114599
C/2017 S3 (PANSTARRS),h,08/16.6079/2018,99.2069,171.3104,255.8245,1.000090,0.205442,2000,12.9,4.0
# From MPC109591
C/2017 S6 (Catalina),h,02/26.1695/2018,152.8649,131.1119,135.0071,1.000934,1.551379,2000,12.5,4.0
# From MPEC 2022-OB6
P/2017 S8 (PANSTARRS),e,29.8486,191.5192,254.8495,2.777747,0.2128948,0.39074362,2.3013,09/26.0/2022,2000,g 16.0,4.0
# From MPC107050
P/2017 S9 (PANSTARRS),e,14.1422,146.2246,237.5874,3.156116,0.1757821,0.30569509,332.8823,09/26.0/2022,2000,g 17.0,4.0
# From MPC114600
C/2017 T1 (Heinze),e,96.9073,102.5425,97.0300,10732,0.0000009,0.99994540,0.0000,02/20.6377/2018,2000,g 14.5,4.0
# From MPEC 2021-Y10
C/2017 T2 (PANSTARRS),e,57.2540,64.4018,92.9452,1665,0.0000145,0.99903035,0.0000,05/04.7964/2020,2000,g  5.0,4.0
# From MPC114600
C/2017 T3 (ATLAS),e,88.2293,230.2075,246.8079,1214,0.0000233,0.99932131,0.0000,07/19.0742/2018,2000,g 10.0,4.0
# From MPC115882
P/2017 TW13 (Lemmon),e,44.8496,322.2715,119.9131,7.136221,0.0517013,0.71011989,80.5203,09/26.0/2022,2000,g 15.0,2.0
# From MPEC 2022-K19
P/2017 U3 (PANSTARRS),e,15.9186,165.1098,296.3375,4.925656,0.0901588,0.09946687,113.8414,09/26.0/2022,2000,g 11.0,4.0
# From MPEC 2021-P47
C/2017 U4 (PANSTARRS),e,158.2038,245.9155,158.9750,61496,0.0000001,0.99987442,0.0000,09/21.8867/2018,2000,g  7.0,4.0
# From MPC114600
C/2017 U5 (PANSTARRS),e,18.9780,163.0858,261.9974,16.90534,0.0141797,0.74473337,24.6942,09/26.0/2022,2000,g 12.0,4.0
# From MPEC 2022-PB4
C/2017 U7 (PANSTARRS),h,09/15.0291/2019,142.6077,276.2598,326.4049,1.001318,6.427449,2000,8.3,2.0
# From MPC114600
C/2017 W2 (Leonard),e,98.2078,312.8139,168.8800,13.61185,0.0196258,0.71018190,35.1443,09/26.0/2022,2000,g 11.0,4.0
# From MPC114601
P/2017 W3 (Gibbs),e,18.1673,210.2229,327.8285,7.833567,0.0449536,0.50639744,75.1606,09/26.0/2022,2000,g 10.5,4.0
# From MPEC 2021-R75
C/2017 X1 (PANSTARRS),e,31.3303,251.1494,283.1697,31.05114,0.0056962,0.84974070,8.9141,09/26.0/2022,2000,g 10.0,4.0
# From MPEC 2022-QD9
C/2017 Y2 (PANSTARRS),h,11/05.0501/2020,128.4310,66.0052,147.9330,1.001291,4.632944,2000,15.0,4.0
# From MPC111770
P/2017 Y3 (Leonard),e,27.5608,153.8494,67.5938,9.826007,0.0319992,0.86953750,54.0798,09/26.0/2022,2000,g 16.5,4.0
# From MPC114601
C/2018 A1 (PANSTARRS),e,53.6078,336.6500,96.1814,25.11516,0.0078307,0.90418246,14.0986,09/26.0/2022,2000,g 12.5,4.0
# From MPEC 2021-P47
C/2018 A3 (ATLAS),e,139.5365,194.2927,86.3519,378.4387,0.0001339,0.99133915,0.0000,01/11.2648/2019,2000,g  8.5,4.0
# From MPC114601
C/2018 A4 (PANSTARRS),e,3.1501,97.5907,355.9606,12.18401,0.0231750,0.80371767,36.8677,09/26.0/2022,2000,g 14.0,4.0
# From MPC109147
P/2018 A5 (PANSTARRS),e,23.6034,87.7962,359.4901,5.629317,0.0737939,0.52317008,134.9103,09/26.0/2022,2000,g 15.0,4.0
# From MPEC 2022-C56
C/2018 A6 (Gibbs),e,77.0566,340.3811,264.3658,15.06911,0.0168489,0.79974884,19.7484,09/26.0/2022,2000,g  9.0,4.0
# From MPEC 2022-O08
C/2018 B1 (Lemmon),e,162.4185,133.1918,68.3894,4952,0.0000028,0.99896418,0.0000,03/27.7401/2018,2000,g  9.0,4.0
# From MPC114601
P/2018 C1 (Lemmon-Read),e,5.1127,270.3429,235.6982,5.652905,0.0733325,0.53205213,122.8593,09/26.0/2022,2000,g 13.5,4.0
# From MPC114601
C/2018 C2 (Lemmon),h,05/31.5092/2018,34.4632,91.2309,134.0391,1.000093,1.960824,2000,13.0,4.0
# From MPEC 2022-M88
C/2018 DO4 (Lemmon),e,160.4439,251.4298,176.2915,25.36803,0.0077139,0.90490512,8.7620,09/26.0/2022,2000,g 11.0,4.0
# From MPC114602
C/2018 E1 (ATLAS),e,72.5080,146.8482,299.2963,53.85716,0.0024937,0.94998671,4.0448,09/26.0/2022,2000,g 10.5,4.0
# From MPEC 2022-N37
C/2018 E2 (Barros),e,97.6299,67.1573,277.4449,2882,0.0000064,0.99864015,0.0000,12/23.7349/2017,2000,g 10.5,4.0
# From MPC114602
C/2018 EN4 (NEOWISE),e,81.9268,136.1282,35.0349,17.93790,0.0129732,0.91854185,20.4525,09/26.0/2022,2000,g 15.0,4.0
# From MPC114602
C/2018 EF9 (Lemmon),e,84.6176,172.5541,72.6297,464.1910,0.0000986,0.99663717,0.0000,05/21.4984/2018,2000,g 18.0,2.0
# From MPEC 2021-R75
C/2018 F1 (Grauer),e,46.0776,177.2757,71.5968,246.1382,0.0002552,0.98782520,0.0000,12/12.3319/2018,2000,g 11.5,4.0
# From MPEC 2021-W31
C/2018 F4 (PANSTARRS),h,12/03.4767/2019,78.0846,26.5156,263.2253,1.000042,3.442867,2000,11.0,6.0
# From MPEC 2021-Y10
C/2018 F4-A,e,78.0848,26.5158,263.2221,337358,0.0000000,0.99998979,0.0000,12/03.4650/2019,2000,g 11.0,6.0
# From MPEC 2021-W31
C/2018 F4-B,h,12/03.4012/2019,78.0855,26.5154,263.2071,1.000086,3.442518,2000,11.0,6.0
# From MPC114602
P/2018 H2 (PANSTARRS),e,7.4098,68.0125,120.0262,4.383728,0.1073838,0.54199059,183.6814,09/26.0/2022,2000,g 16.6,2.0
# From MPC114602
C/2018 K1 (Weiland),e,164.1896,260.1582,325.2297,30.19460,0.0059403,0.93767173,9.6967,09/26.0/2022,2000,g 14.9,4.0
# From MPEC 2021-R75
C/2018 KJ3 (Lemmon),e,136.6823,91.6432,217.6742,960.0596,0.0000331,0.99622091,0.0000,09/09.9725/2019,2000,g 12.2,2.0
# From MPC114602
P/2018 L1 (PANSTARRS),e,10.5816,268.6203,18.0372,3.653311,0.1411478,0.48200219,199.5897,09/26.0/2022,2000,g 15.0,4.0
# From MPEC 2021-P47
C/2018 L2 (ATLAS),e,67.2802,243.0068,56.3192,259.4780,0.0002358,0.99338886,0.0000,12/02.3787/2018,2000,g 10.0,4.0
# From MPC114603
P/2018 L4 (PANSTARRS),e,26.6212,145.1656,140.6217,4.944816,0.0896353,0.65927664,136.0585,09/26.0/2022,2000,g 17.5,4.0
# From MPC119996
P/2018 L5 (Leonard),e,2.2085,219.0511,93.9482,3.628799,0.1425803,0.36436380,228.7551,09/26.0/2022,2000,g 14.5,4.0
# From MPC117070
C/2018 M1 (Catalina),e,37.2935,339.4133,14.2283,21.48052,0.0099000,0.93927227,15.2279,09/26.0/2022,2000,g 15.5,4.0
# From MPEC 2022-M21
C/2018 N1 (NEOWISE),e,159.4200,292.5150,354.7206,501.2459,0.0000878,0.99738656,0.0000,08/02.6283/2018,2000,g 15.5,4.0
# From MPEC 2022-L66
C/2018 N2 (ASASSN),h,11/11.2435/2019,77.5502,25.2078,24.4639,1.000739,3.126869,2000,6.0,4.0
# From MPC114603
C/2018 O1 (ATLAS),e,154.0091,87.7570,162.6956,28.07785,0.0066246,0.94446702,9.8421,09/26.0/2022,2000,g 17.0,4.0
# From MPEC 2022-M21
P/2018 P3 (PANSTARRS),e,8.9139,59.1592,305.9665,3.004617,0.1892433,0.41709585,273.5761,09/26.0/2022,2000,g 14.5,4.0
# From MPC114603
P/2018 P4 (PANSTARRS),e,23.1097,353.0617,8.3957,6.682564,0.0570544,0.45064860,80.8456,09/26.0/2022,2000,g 12.0,4.0
# From MPEC 2021-P47
